{
  "type": "FeatureCollection",
  "features": [
    {
      "type": "Feature",
      "properties": {
        "norad_id": 40894,
        "name": "GAOFEN-9 01",
        "group": "resource",
        "lat": 43.24511639618612,
        "lon": -155.99814678574674,
        "alt_km": 612.0710614437548,
        "timestamp": "2025-12-03T08:58:45.656380+00:00",
        "meta_object_name": "GAOFEN-9 01",
        "meta_object_id": "2015-047A",
        "meta_epoch": "2025-12-03T05:07:47.269056",
        "meta_mean_motion": 14.82382245,
        "meta_eccentricity": 0.0028941,
        "meta_inclination": 97.6556,
        "meta_ra_of_asc_node": 16.5804,
        "meta_arg_of_pericenter": 64.2943,
        "meta_mean_anomaly": 296.1254,
        "meta_ephemeris_type": 0,
        "meta_classification_type": "U",
        "meta_norad_cat_id": 40894,
        "meta_element_set_no": 999,
        "meta_rev_at_epoch": 55115,
        "meta_bstar": 0.00020706,
        "meta_mean_motion_dot": 1.619e-05,
        "meta_mean_motion_ddot": 0,
        "tle_line1": "1 40894U 15047A   25337.21374154  .00001619  00000+0  20706-3 0  9993",
        "tle_line2": "2 40894  97.6556  16.5804 0028941  64.2943 296.1254 14.82382245551156"
      },
      "geometry": {
        "type": "Point",
        "coordinates": [
          -155.99814678574674,
          43.24511639618612
        ]
      }
    },
    {
      "type": "Feature",
      "properties": {
        "norad_id": 41026,
        "name": "YAOGAN-28",
        "group": "resource",
        "lat": -40.271231572135136,
        "lon": 121.6501149181557,
        "alt_km": 507.92474286032393,
        "timestamp": "2025-12-03T08:58:45.656391+00:00",
        "meta_object_name": "YAOGAN-28",
        "meta_object_id": "2015-064A",
        "meta_epoch": "2025-12-03T04:25:50.503584",
        "meta_mean_motion": 15.24088975,
        "meta_eccentricity": 0.0011932,
        "meta_inclination": 97.2798,
        "meta_ra_of_asc_node": 115.2487,
        "meta_arg_of_pericenter": 157.7021,
        "meta_mean_anomaly": 202.4738,
        "meta_ephemeris_type": 0,
        "meta_classification_type": "U",
        "meta_norad_cat_id": 41026,
        "meta_element_set_no": 999,
        "meta_rev_at_epoch": 56079,
        "meta_bstar": 0.0004993,
        "meta_mean_motion_dot": 0.00012089,
        "meta_mean_motion_ddot": 0,
        "tle_line1": "1 41026U 15064A   25337.18461231  .00012089  00000+0  49930-3 0  9992",
        "tle_line2": "2 41026  97.2798 115.2487 0011932 157.7021 202.4738 15.24088975560796"
      },
      "geometry": {
        "type": "Point",
        "coordinates": [
          121.6501149181557,
          -40.271231572135136
        ]
      }
    },
    {
      "type": "Feature",
      "properties": {
        "norad_id": 41038,
        "name": "YAOGAN-29",
        "group": "resource",
        "lat": 7.3700273564971415,
        "lon": -0.5299197940264628,
        "alt_km": 621.7625716409211,
        "timestamp": "2025-12-03T08:58:45.656406+00:00",
        "meta_object_name": "YAOGAN-29",
        "meta_object_id": "2015-069A",
        "meta_epoch": "2025-12-03T05:42:24.964416",
        "meta_mean_motion": 14.82865174,
        "meta_eccentricity": 7.74e-05,
        "meta_inclination": 98.0229,
        "meta_ra_of_asc_node": 0.3786,
        "meta_arg_of_pericenter": 7.7666,
        "meta_mean_anomaly": 352.3559,
        "meta_ephemeris_type": 0,
        "meta_classification_type": "U",
        "meta_norad_cat_id": 41038,
        "meta_element_set_no": 999,
        "meta_rev_at_epoch": 54158,
        "meta_bstar": 9.357e-05,
        "meta_mean_motion_dot": 7.04e-06,
        "meta_mean_motion_ddot": 0,
        "tle_line1": "1 41038U 15069A   25337.23778894  .00000704  00000+0  93570-4 0  9993",
        "tle_line2": "2 41038  98.0229   0.3786 0000774   7.7666 352.3559 14.82865174541583"
      },
      "geometry": {
        "type": "Point",
        "coordinates": [
          -0.5299197940264628,
          7.3700273564971415
        ]
      }
    },
    {
      "type": "Feature",
      "properties": {
        "norad_id": 41167,
        "name": "KENT RIDGE 1",
        "group": "resource",
        "lat": -10.140401597672385,
        "lon": 142.6102288954423,
        "alt_km": 503.9508453693379,
        "timestamp": "2025-12-03T08:58:45.656417+00:00",
        "meta_object_name": "KENT RIDGE 1",
        "meta_object_id": "2015-077B",
        "meta_epoch": "2025-12-03T04:51:29.321280",
        "meta_mean_motion": 15.21515134,
        "meta_eccentricity": 0.0008678,
        "meta_inclination": 14.9806,
        "meta_ra_of_asc_node": 281.9029,
        "meta_arg_of_pericenter": 355.7263,
        "meta_mean_anomaly": 4.2984,
        "meta_ephemeris_type": 0,
        "meta_classification_type": "U",
        "meta_norad_cat_id": 41167,
        "meta_element_set_no": 999,
        "meta_rev_at_epoch": 55118,
        "meta_bstar": 0.00024955,
        "meta_mean_motion_dot": 6.551e-05,
        "meta_mean_motion_ddot": 0,
        "tle_line1": "1 41167U 15077B   25337.20242270  .00006551  00000+0  24955-3 0  9992",
        "tle_line2": "2 41167  14.9806 281.9029 0008678 355.7263   4.2984 15.21515134551185"
      },
      "geometry": {
        "type": "Point",
        "coordinates": [
          142.6102288954423,
          -10.140401597672385
        ]
      }
    },
    {
      "type": "Feature",
      "properties": {
        "norad_id": 41194,
        "name": "GAOFEN-4",
        "group": "resource",
        "lat": -0.1153161746198645,
        "lon": -47.154059722387025,
        "alt_km": 35795.23861667248,
        "timestamp": "2025-12-03T08:58:45.656431+00:00",
        "meta_object_name": "GAOFEN-4",
        "meta_object_id": "2015-083A",
        "meta_epoch": "2025-12-03T01:45:38.831040",
        "meta_mean_motion": 1.00273809,
        "meta_eccentricity": 0.0003747,
        "meta_inclination": 0.1437,
        "meta_ra_of_asc_node": 80.6586,
        "meta_arg_of_pericenter": 104.049,
        "meta_mean_anomaly": 19.5531,
        "meta_ephemeris_type": 0,
        "meta_classification_type": "U",
        "meta_norad_cat_id": 41194,
        "meta_element_set_no": 999,
        "meta_rev_at_epoch": 3656,
        "meta_bstar": 0,
        "meta_mean_motion_dot": -3.16e-06,
        "meta_mean_motion_ddot": 0,
        "tle_line1": "1 41194U 15083A   25337.07336610 -.00000316  00000+0  00000+0 0  9991",
        "tle_line2": "2 41194   0.1437  80.6586 0003747 104.0490  19.5531  1.00273809 36562"
      },
      "geometry": {
        "type": "Point",
        "coordinates": [
          -47.154059722387025,
          -0.1153161746198645
        ]
      }
    },
    {
      "type": "Feature",
      "properties": {
        "norad_id": 41240,
        "name": "JASON-3",
        "group": "resource",
        "lat": 63.37456597510965,
        "lon": -64.98089817046768,
        "alt_km": 1309.2830423935093,
        "timestamp": "2025-12-03T08:58:45.656443+00:00",
        "meta_object_name": "JASON-3",
        "meta_object_id": "2016-002A",
        "meta_epoch": "2025-12-03T02:51:33.694272",
        "meta_mean_motion": 12.87625986,
        "meta_eccentricity": 0.0007144,
        "meta_inclination": 66.0392,
        "meta_ra_of_asc_node": 178.0509,
        "meta_arg_of_pericenter": 270.2906,
        "meta_mean_anomaly": 89.7294,
        "meta_ephemeris_type": 0,
        "meta_classification_type": "U",
        "meta_norad_cat_id": 41240,
        "meta_element_set_no": 999,
        "meta_rev_at_epoch": 46200,
        "meta_bstar": 0.00020374,
        "meta_mean_motion_dot": -1.1e-07,
        "meta_mean_motion_ddot": 0,
        "tle_line1": "1 41240U 16002A   25337.11913998 -.00000011  00000+0  20374-3 0  9992",
        "tle_line2": "2 41240  66.0392 178.0509 0007144 270.2906  89.7294 12.87625986462006"
      },
      "geometry": {
        "type": "Point",
        "coordinates": [
          -64.98089817046768,
          63.37456597510965
        ]
      }
    },
    {
      "type": "Feature",
      "properties": {
        "norad_id": 41335,
        "name": "SENTINEL-3A",
        "group": "resource",
        "lat": 23.319928581172913,
        "lon": -133.72833596976645,
        "alt_km": 801.8386104365063,
        "timestamp": "2025-12-03T08:58:45.656454+00:00",
        "meta_object_name": "SENTINEL-3A",
        "meta_object_id": "2016-011A",
        "meta_epoch": "2025-12-03T03:11:59.798400",
        "meta_mean_motion": 14.26740449,
        "meta_eccentricity": 9.95e-05,
        "meta_inclination": 98.622,
        "meta_ra_of_asc_node": 42.2843,
        "meta_arg_of_pericenter": 91.2151,
        "meta_mean_anomaly": 268.9143,
        "meta_ephemeris_type": 0,
        "meta_classification_type": "U",
        "meta_norad_cat_id": 41335,
        "meta_element_set_no": 999,
        "meta_rev_at_epoch": 51010,
        "meta_bstar": 0.00010219,
        "meta_mean_motion_dot": 2.04e-06,
        "meta_mean_motion_ddot": 0,
        "tle_line1": "1 41335U 16011A   25337.13333100  .00000204  00000+0  10219-3 0  9990",
        "tle_line2": "2 41335  98.6220  42.2843 0000995  91.2151 268.9143 14.26740449510101"
      },
      "geometry": {
        "type": "Point",
        "coordinates": [
          -133.72833596976645,
          23.319928581172913
        ]
      }
    }
  ]
}